start=new Date('2021-12-07T00:00:00.000Z').valueOf();
sats=[{"MEAN_MOTION_DDOT":"0.0000000000000","REV_AT_EPOCH":"9577","MEAN_ANOMALY":"276.8618","REF_FRAME":"TEME","BSTAR":"0.00008978300000","SEMIMAJOR_AXIS":"6925.367","MEAN_MOTION":"15.06393836","TLE_LINE2":"2 45380  53.0533 283.3450 0001573  83.2550 276.8618 15.06393836 95775","MEAN_ELEMENT_THEORY":"SGP4","ECCENTRICITY":"0.00015730","LAUNCH_DATE":"2020-03-18","OBJECT_TYPE":"PAYLOAD","INCLINATION":"53.0533","COUNTRY_CODE":"US","EPHEMERIS_TYPE":"0","ELEMENT_SET_NO":"999","OBJECT_NAME":"STARLINK-1207","MEAN_MOTION_DOT":"0.00001056","NORAD_CAT_ID":"45380","ARG_OF_PERICENTER":"83.2550","DECAY_DATE":null,"PERIAPSIS":"546.143","CLASSIFICATION_TYPE":"U","TIME_SYSTEM":"UTC","PERIOD":"95.593","RCS_SIZE":"LARGE","GP_ID":"191210798","APOAPSIS":"548.322","SITE":"AFETR","OBJECT_ID":"2020-019W","TLE_LINE1":"1 45380U 20019W   21340.56919123  .00001056  00000-0  89783-4 0  9999","CENTER_NAME":"EARTH","EPOCH":"2021-12-06T13:39:38.122272","FILE":"3234187","RA_OF_ASC_NODE":"283.3450"},{"NORAD_CAT_ID":"45381","OBJECT_NAME":"STARLINK-1258","MEAN_MOTION_DOT":"0.00001651","EPHEMERIS_TYPE":"0","ELEMENT_SET_NO":"999","LAUNCH_DATE":"2020-03-18","OBJECT_TYPE":"PAYLOAD","INCLINATION":"53.0538","COUNTRY_CODE":"US","ECCENTRICITY":"0.00021280","MEAN_MOTION":"15.06390943","TLE_LINE2":"2 45381  53.0538 283.2866 0002128  56.3042 303.8149 15.06390943 95760","MEAN_ELEMENT_THEORY":"SGP4","BSTAR":"0.00012975000000","REF_FRAME":"TEME","SEMIMAJOR_AXIS":"6925.376","REV_AT_EPOCH":"9576","MEAN_MOTION_DDOT":"0.0000000000000","MEAN_ANOMALY":"303.8149","RA_OF_ASC_NODE":"283.2866","CENTER_NAME":"EARTH","EPOCH":"2021-12-06T13:55:34.129632","FILE":"3234296","OBJECT_ID":"2020-019X","SITE":"AFETR","TLE_LINE1":"1 45381U 20019X   21340.58025613  .00001651  00000-0  12975-3 0  9993","PERIOD":"95.593","GP_ID":"191233434","RCS_SIZE":"LARGE","APOAPSIS":"548.715","CLASSIFICATION_TYPE":"U","TIME_SYSTEM":"UTC","ARG_OF_PERICENTER":"56.3042","DECAY_DATE":null,"PERIAPSIS":"545.768"},{"CLASSIFICATION_TYPE":"U","TIME_SYSTEM":"UTC","PERIAPSIS":"545.628","ARG_OF_PERICENTER":"53.0912","DECAY_DATE":null,"EPOCH":"2021-12-06T13:23:43.230336","FILE":"3234035","CENTER_NAME":"EARTH","RA_OF_ASC_NODE":"283.3975","RCS_SIZE":"LARGE","GP_ID":"191203580","APOAPSIS":"548.865","PERIOD":"95.593","SITE":"AFETR","OBJECT_ID":"2020-019Y","TLE_LINE1":"1 45382U 20019Y   21340.55813924  .00000408  00000-0  46340-4 0  9994","TLE_LINE2":"2 45382  53.0553 283.3975 0002337  53.0912 307.0291 15.06389335 95589","MEAN_MOTION":"15.06389335","MEAN_ELEMENT_THEORY":"SGP4","ECCENTRICITY":"0.00023370","MEAN_ANOMALY":"307.0291","MEAN_MOTION_DDOT":"0.0000000000000","REV_AT_EPOCH":"9558","BSTAR":"0.00004634000000","REF_FRAME":"TEME","SEMIMAJOR_AXIS":"6925.381","OBJECT_NAME":"STARLINK-1264","MEAN_MOTION_DOT":"0.00000408","NORAD_CAT_ID":"45382","INCLINATION":"53.0553","COUNTRY_CODE":"US","LAUNCH_DATE":"2020-03-18","OBJECT_TYPE":"PAYLOAD","ELEMENT_SET_NO":"999","EPHEMERIS_TYPE":"0"},{"REF_FRAME":"TEME","BSTAR":"0.00012409000000","SEMIMAJOR_AXIS":"6925.372","MEAN_MOTION_DDOT":"0.0000000000000","REV_AT_EPOCH":"9576","MEAN_ANOMALY":"302.8273","ECCENTRICITY":"0.00020430","MEAN_MOTION":"15.06392378","TLE_LINE2":"2 45383  53.0535 283.3167 0002043  57.2912 302.8273 15.06392378 95767","MEAN_ELEMENT_THEORY":"SGP4","EPHEMERIS_TYPE":"0","ELEMENT_SET_NO":"999","LAUNCH_DATE":"2020-03-18","OBJECT_TYPE":"PAYLOAD","COUNTRY_CODE":"US","INCLINATION":"53.0535","NORAD_CAT_ID":"45383","OBJECT_NAME":"STARLINK-1266","MEAN_MOTION_DOT":"0.00001567","ARG_OF_PERICENTER":"57.2912","DECAY_DATE":null,"PERIAPSIS":"545.822","CLASSIFICATION_TYPE":"U","TIME_SYSTEM":"UTC","OBJECT_ID":"2020-019Z","SITE":"AFETR","TLE_LINE1":"1 45383U 20019Z   21340.57288153  .00001567  00000-0  12409-3 0  9992","PERIOD":"95.593","GP_ID":"191203332","RCS_SIZE":"LARGE","APOAPSIS":"548.652","RA_OF_ASC_NODE":"283.3167","CENTER_NAME":"EARTH","EPOCH":"2021-12-06T13:44:56.964192","FILE":"3234035"},{"TLE_LINE2":"2 45384  53.0557 283.3632 0001872  59.2742 300.8431 15.06395781 95766","MEAN_MOTION":"15.06395781","MEAN_ELEMENT_THEORY":"SGP4","ECCENTRICITY":"0.00018720","MEAN_ANOMALY":"300.8431","REV_AT_EPOCH":"9576","MEAN_MOTION_DDOT":"0.0000000000000","REF_FRAME":"TEME","BSTAR":"0.00004195300000","SEMIMAJOR_AXIS":"6925.361","OBJECT_NAME":"STARLINK-1267","MEAN_MOTION_DOT":"0.00000343","NORAD_CAT_ID":"45384","COUNTRY_CODE":"US","INCLINATION":"53.0557","LAUNCH_DATE":"2020-03-18","OBJECT_TYPE":"PAYLOAD","ELEMENT_SET_NO":"999","EPHEMERIS_TYPE":"0","CLASSIFICATION_TYPE":"U","TIME_SYSTEM":"UTC","PERIAPSIS":"545.930","DECAY_DATE":null,"ARG_OF_PERICENTER":"59.2742","EPOCH":"2021-12-06T13:29:01.460544","FILE":"3234035","CENTER_NAME":"EARTH","RA_OF_ASC_NODE":"283.3632","RCS_SIZE":"LARGE","GP_ID":"191204582","APOAPSIS":"548.523","PERIOD":"95.592","OBJECT_ID":"2020-019AA","SITE":"AFETR","TLE_LINE1":"1 45384U 20019AA  21340.56182246  .00000343  00000-0  41953-4 0  9996"},{"FILE":"3234192","EPOCH":"2021-12-06T13:34:20.307648","CENTER_NAME":"EARTH","RA_OF_ASC_NODE":"283.3625","APOAPSIS":"548.595","GP_ID":"191210719","RCS_SIZE":"LARGE","PERIOD":"95.593","TLE_LINE1":"1 45386U 20019AC  21340.56551282  .00001701  00000-0  13311-3 0  9993","OBJECT_ID":"2020-019AC","SITE":"AFETR","TIME_SYSTEM":"UTC","CLASSIFICATION_TYPE":"U","PERIAPSIS":"545.887","DECAY_DATE":null,"ARG_OF_PERICENTER":"58.3366","MEAN_MOTION_DOT":"0.00001701","OBJECT_NAME":"STARLINK-1272","NORAD_CAT_ID":"45386","INCLINATION":"53.0548","COUNTRY_CODE":"US","OBJECT_TYPE":"PAYLOAD","LAUNCH_DATE":"2020-03-18","ELEMENT_SET_NO":"999","EPHEMERIS_TYPE":"0","MEAN_ELEMENT_THEORY":"SGP4","TLE_LINE2":"2 45386  53.0548 283.3625 0001955  58.3366 301.7813 15.06390914 95772","MEAN_MOTION":"15.06390914","ECCENTRICITY":"0.00019550","MEAN_ANOMALY":"301.7813","REV_AT_EPOCH":"9577","MEAN_MOTION_DDOT":"0.0000000000000","SEMIMAJOR_AXIS":"6925.376","BSTAR":"0.00013311000000","REF_FRAME":"TEME"},{"DECAY_DATE":null,"ARG_OF_PERICENTER":"56.0619","PERIAPSIS":"545.787","CLASSIFICATION_TYPE":"U","TIME_SYSTEM":"UTC","PERIOD":"95.592","GP_ID":"191232683","RCS_SIZE":"LARGE","APOAPSIS":"548.654","OBJECT_ID":"2020-019AD","SITE":"AFETR","TLE_LINE1":"1 45387U 20019AD  21340.58761860  .00001900  00000-0  14646-3 0  9994","CENTER_NAME":"EARTH","EPOCH":"2021-12-06T14:06:10.247040","FILE":"3234296","RA_OF_ASC_NODE":"283.2601","REV_AT_EPOCH":"9576","MEAN_MOTION_DDOT":"0.0000000000000","MEAN_ANOMALY":"304.0566","BSTAR":"0.00014646000000","REF_FRAME":"TEME","SEMIMAJOR_AXIS":"6925.355","TLE_LINE2":"2 45387  53.0546 283.2601 0002070  56.0619 304.0566 15.06397819 95760","MEAN_MOTION":"15.06397819","MEAN_ELEMENT_THEORY":"SGP4","ECCENTRICITY":"0.00020700","LAUNCH_DATE":"2020-03-18","OBJECT_TYPE":"PAYLOAD","INCLINATION":"53.0546","COUNTRY_CODE":"US","EPHEMERIS_TYPE":"0","ELEMENT_SET_NO":"999","OBJECT_NAME":"STARLINK-1274","MEAN_MOTION_DOT":"0.00001900","NORAD_CAT_ID":"45387"},{"MEAN_ANOMALY":"304.0413","MEAN_MOTION_DDOT":"0.0000000000000","REV_AT_EPOCH":"9548","SEMIMAJOR_AXIS":"6925.381","REF_FRAME":"TEME","BSTAR":"0.00000496290000","MEAN_ELEMENT_THEORY":"SGP4","MEAN_MOTION":"15.06389520","TLE_LINE2":"2 45388  53.0547 303.0947 0001829  56.0750 304.0413 15.06389520 95483","ECCENTRICITY":"0.00018290","INCLINATION":"53.0547","COUNTRY_CODE":"US","OBJECT_TYPE":"PAYLOAD","LAUNCH_DATE":"2020-03-18","ELEMENT_SET_NO":"999","EPHEMERIS_TYPE":"0","MEAN_MOTION_DOT":"-0.00000208","OBJECT_NAME":"STARLINK-1280","NORAD_CAT_ID":"45388","PERIAPSIS":"545.979","ARG_OF_PERICENTER":"56.0750","DECAY_DATE":null,"TIME_SYSTEM":"UTC","CLASSIFICATION_TYPE":"U","APOAPSIS":"548.512","RCS_SIZE":"LARGE","GP_ID":"191232433","PERIOD":"95.593","TLE_LINE1":"1 45388U 20019AE  21340.62264463 -.00000208  00000-0  49629-5 0  9999","OBJECT_ID":"2020-019AE","SITE":"AFETR","FILE":"3234296","EPOCH":"2021-12-06T14:56:36.496032","CENTER_NAME":"EARTH","RA_OF_ASC_NODE":"303.0947"},{"SITE":"AFETR","OBJECT_ID":"2020-019AF","TLE_LINE1":"1 45389U 20019AF  21340.53601890 -.00000093  00000-0  12665-4 0  9990","RCS_SIZE":"LARGE","GP_ID":"191204084","APOAPSIS":"548.551","PERIOD":"95.593","RA_OF_ASC_NODE":"283.4731","EPOCH":"2021-12-06T12:51:52.032960","FILE":"3234035","CENTER_NAME":"EARTH","PERIAPSIS":"545.936","DECAY_DATE":null,"ARG_OF_PERICENTER":"58.6337","CLASSIFICATION_TYPE":"U","TIME_SYSTEM":"UTC","ELEMENT_SET_NO":"999","EPHEMERIS_TYPE":"0","COUNTRY_CODE":"US","INCLINATION":"53.0545","LAUNCH_DATE":"2020-03-18","OBJECT_TYPE":"PAYLOAD","NORAD_CAT_ID":"45389","OBJECT_NAME":"STARLINK-1283","MEAN_MOTION_DOT":"-0.00000093","BSTAR":"0.00001266500000","REF_FRAME":"TEME","SEMIMAJOR_AXIS":"6925.378","MEAN_ANOMALY":"301.4836","MEAN_MOTION_DDOT":"0.0000000000000","REV_AT_EPOCH":"9576","ECCENTRICITY":"0.00018880","MEAN_MOTION":"15.06390285","TLE_LINE2":"2 45389  53.0545 283.4731 0001888  58.6337 301.4836 15.06390285 95769","MEAN_ELEMENT_THEORY":"SGP4"},{"ELEMENT_SET_NO":"999","EPHEMERIS_TYPE":"0","COUNTRY_CODE":"US","INCLINATION":"53.0556","LAUNCH_DATE":"2020-03-18","OBJECT_TYPE":"PAYLOAD","NORAD_CAT_ID":"45390","OBJECT_NAME":"STARLINK-1284","MEAN_MOTION_DOT":"0.00001432","BSTAR":"0.00011500000000","REF_FRAME":"TEME","SEMIMAJOR_AXIS":"6925.360","MEAN_ANOMALY":"298.5509","MEAN_MOTION_DDOT":"0.0000000000000","REV_AT_EPOCH":"9576","ECCENTRICITY":"0.00018790","MEAN_MOTION":"15.06396143","TLE_LINE2":"2 45390  53.0556 283.3152 0001879  61.5669 298.5509 15.06396143 95762","MEAN_ELEMENT_THEORY":"SGP4","OBJECT_ID":"2020-019AG","SITE":"AFETR","TLE_LINE1":"1 45390U 20019AG  21340.57656243  .00001432  00000-0  11500-3 0  9991","GP_ID":"191233435","RCS_SIZE":"LARGE","APOAPSIS":"548.527","PERIOD":"95.592","RA_OF_ASC_NODE":"283.3152","EPOCH":"2021-12-06T13:50:14.993952","FILE":"3234296","CENTER_NAME":"EARTH","PERIAPSIS":"545.924","DECAY_DATE":null,"ARG_OF_PERICENTER":"61.5669","CLASSIFICATION_TYPE":"U","TIME_SYSTEM":"UTC"}];
